STARLINK-36766          
1 68069U 26042A   26085.57583118  .00425253  00000+0  20473-2 0  9990
2 68069  53.1583 110.1514 0001769  86.6130 273.5095 15.80941796  4753
STARLINK-36823          
1 68070U 26042B   26085.57507608  .00218812  00000+0  10814-2 0  9991
2 68070  53.1581 110.1458 0001555 129.2949 230.8212 15.80931413  4757
STARLINK-36970          
1 68071U 26042C   26085.83336806  .00063380  00000+0  41533-3 0  9992
2 68071  53.1596 108.9020 0000913 113.8792 251.6187 15.75194468  4809
STARLINK-36972          
1 68072U 26042D   26085.51110809  .00192883  00000+0  95745-3 0  9996
2 68072  53.1578 110.4580 0001272 114.6421 245.4734 15.80910420  4748
STARLINK-37074          
1 68073U 26042E   26085.44638447  .00135578  00000+0  67862-3 0  9999
2 68073  53.1577 110.7650 0001392 169.1847 190.9206 15.80907804  4738
STARLINK-37045          
1 68074U 26042F   26085.66667824  .00045324  00000+0  29849-3 0  9997
2 68074  53.1592 109.8903 0001101  83.1931 339.2027 15.75220787  4789
STARLINK-37026          
1 68075U 26042G   26085.47476963  .00135903  00000+0  87409-3 0  9998
2 68075  53.1573 110.9521 0001440  90.9098 269.2087 15.75303366  4732
STARLINK-37023          
1 68076U 26042H   26085.53301766  .00174495  00000+0  11170-2 0  9994
2 68076  53.1579 110.6014 0001196 102.1038 258.0116 15.75282714  4744
STARLINK-37036          
1 68077U 26042J   26085.53334714  .00179318  00000+0  11471-2 0  9997
2 68077  53.1576 110.6037 0000953  81.4325 278.6803 15.75283745  4741
STARLINK-36973          
1 68078U 26042K   26085.83336806  .00038111  00000+0  25199-3 0  9993
2 68078  53.1589 108.7960 0001177  90.2091 326.7911 15.75209112  4804
STARLINK-37063          
1 68079U 26042L   26085.44263896  .00230234  00000+0  11372-2 0  9996
2 68079  53.1575 110.7393 0001639  74.3737 285.7466 15.80910337  4731
STARLINK-37051          
1 68080U 26042M   26085.83336806  .00036149  00000+0  23926-3 0  9991
2 68080  53.1595 108.8481 0001028 118.0746 273.1738 15.75211763  4801
